STARLINK-36944          
1 68029U 26040Q   26070.75002314 -.01169359  44859-3 -20521-2 0  9995
2 68029  97.2750  19.1275 0001167  75.3611  83.8462 16.02128393  2750
STARLINK-36942          
1 68030U 26040R   26070.75002314 -.01211866  47985-3 -21130-2 0  9998
2 68030  97.2761  19.1296 0001155  79.5865  83.0725 16.02245098  2757
STARLINK-36913          
1 68031U 26040S   26070.75002314 -.01256496  51374-3 -21767-2 0  9990
2 68031  97.2761  19.1309 0001251  94.1119  71.9770 16.02362874  2753
STARLINK-36935          
1 68032U 26040T   26070.75002314 -.01267683  52626-3 -21130-2 0  9996
2 68032  97.2765  19.1404 0001135  89.8779  99.7372 16.03023534  2853
STARLINK-36947          
1 68033U 26040U   26070.75002314 -.01275188  52856-3 -21971-2 0  9994
2 68033  97.2762  19.1320 0001199  78.2519  90.6741 16.02458908  2757
STARLINK-36939          
1 68034U 26040V   26070.75002314 -.01288450  54111-3 -21725-2 0  9994
2 68034  97.2771  19.1377 0001219  81.4935 100.3411 16.02830178  2757
STARLINK-36943          
1 68035U 26040W   26070.75002314 -.01315896  56483-3 -21763-2 0  9996
2 68035  97.2776  19.1468 0001133  88.5385 113.2542 16.03163458  2801
STARLINK-36906          
1 68036U 26040X   26070.75002314 -.01277577  53209-3 -21661-2 0  9990
2 68036  97.2765  19.1363 0001226  90.3142  88.5636 16.02734010  2758
STARLINK-36388          
1 68037U 26040Y   26070.75002314 -.01281046  53598-3 -21474-2 0  9990
2 68037  97.2770  19.1394 0001207  91.7966  94.2208 16.02929335  2707
STARLINK-36895          
1 68038U 26040Z   26070.75002314 -.01369367  60472-3 -23295-2 0  9996
2 68038  97.2756  19.1344 0001086  77.8620  97.7981 16.02690811  2759
STARLINK-36373          
1 68039U 26040AA  26070.75002314 -.01266540  52246-3 -21714-2 0  9990
2 68039  97.2757  19.1333 0001200  82.3495  89.5451 16.02542967  2702
STARLINK-36711          
1 68040U 26041A   26070.75002314 -.01546550  00000+0 -73103-2 0  9991
2 68040  53.1594  51.8362 0000534  89.6531 275.6207 15.85048931  2708
