CCSDS_OMM_VERS = 2.0
CREATION_DATE  = 
ORIGINATOR     = 

OBJECT_NAME    = STARLINK-36944
OBJECT_ID      = 2026-040Q
CENTER_NAME    = EARTH
REF_FRAME      = TEME
TIME_SYSTEM    = UTC
MEAN_ELEMENT_THEORY = SGP/SGP4

EPOCH          = 2026-03-11T18:00:01.999296
MEAN_MOTION    = 16.02128393
ECCENTRICITY   = .0001167
INCLINATION    = 97.2750
RA_OF_ASC_NODE = 19.1275
ARG_OF_PERICENTER = 75.3611
MEAN_ANOMALY   = 83.8462

EPHEMERIS_TYPE = 0
CLASSIFICATION_TYPE = U
NORAD_CAT_ID   = 68029
ELEMENT_SET_NO = 999
REV_AT_EPOCH   = 275
BSTAR          = -.20521E-2
MEAN_MOTION_DOT = -.1169359E-1
MEAN_MOTION_DDOT = .44859E-3

CCSDS_OMM_VERS = 2.0
CREATION_DATE  = 
ORIGINATOR     = 

OBJECT_NAME    = STARLINK-36942
OBJECT_ID      = 2026-040R
CENTER_NAME    = EARTH
REF_FRAME      = TEME
TIME_SYSTEM    = UTC
MEAN_ELEMENT_THEORY = SGP/SGP4

EPOCH          = 2026-03-11T18:00:01.999296
MEAN_MOTION    = 16.02245098
ECCENTRICITY   = .0001155
INCLINATION    = 97.2761
RA_OF_ASC_NODE = 19.1296
ARG_OF_PERICENTER = 79.5865
MEAN_ANOMALY   = 83.0725

EPHEMERIS_TYPE = 0
CLASSIFICATION_TYPE = U
NORAD_CAT_ID   = 68030
ELEMENT_SET_NO = 999
REV_AT_EPOCH   = 275
BSTAR          = -.2113E-2
MEAN_MOTION_DOT = -.1211866E-1
MEAN_MOTION_DDOT = .47985E-3

CCSDS_OMM_VERS = 2.0
CREATION_DATE  = 
ORIGINATOR     = 

OBJECT_NAME    = STARLINK-36913
OBJECT_ID      = 2026-040S
CENTER_NAME    = EARTH
REF_FRAME      = TEME
TIME_SYSTEM    = UTC
MEAN_ELEMENT_THEORY = SGP/SGP4

EPOCH          = 2026-03-11T18:00:01.999296
MEAN_MOTION    = 16.02362874
ECCENTRICITY   = .0001251
INCLINATION    = 97.2761
RA_OF_ASC_NODE = 19.1309
ARG_OF_PERICENTER = 94.1119
MEAN_ANOMALY   = 71.9770

EPHEMERIS_TYPE = 0
CLASSIFICATION_TYPE = U
NORAD_CAT_ID   = 68031
ELEMENT_SET_NO = 999
REV_AT_EPOCH   = 275
BSTAR          = -.21767E-2
MEAN_MOTION_DOT = -.1256496E-1
MEAN_MOTION_DDOT = .51374E-3

CCSDS_OMM_VERS = 2.0
CREATION_DATE  = 
ORIGINATOR     = 

OBJECT_NAME    = STARLINK-36935
OBJECT_ID      = 2026-040T
CENTER_NAME    = EARTH
REF_FRAME      = TEME
TIME_SYSTEM    = UTC
MEAN_ELEMENT_THEORY = SGP/SGP4

EPOCH          = 2026-03-11T18:00:01.999296
MEAN_MOTION    = 16.03023534
ECCENTRICITY   = .0001135
INCLINATION    = 97.2765
RA_OF_ASC_NODE = 19.1404
ARG_OF_PERICENTER = 89.8779
MEAN_ANOMALY   = 99.7372

EPHEMERIS_TYPE = 0
CLASSIFICATION_TYPE = U
NORAD_CAT_ID   = 68032
ELEMENT_SET_NO = 999
REV_AT_EPOCH   = 285
BSTAR          = -.2113E-2
MEAN_MOTION_DOT = -.1267683E-1
MEAN_MOTION_DDOT = .52626E-3

CCSDS_OMM_VERS = 2.0
CREATION_DATE  = 
ORIGINATOR     = 

OBJECT_NAME    = STARLINK-36947
OBJECT_ID      = 2026-040U
CENTER_NAME    = EARTH
REF_FRAME      = TEME
TIME_SYSTEM    = UTC
MEAN_ELEMENT_THEORY = SGP/SGP4

EPOCH          = 2026-03-11T18:00:01.999296
MEAN_MOTION    = 16.02458908
ECCENTRICITY   = .0001199
INCLINATION    = 97.2762
RA_OF_ASC_NODE = 19.1320
ARG_OF_PERICENTER = 78.2519
MEAN_ANOMALY   = 90.6741

EPHEMERIS_TYPE = 0
CLASSIFICATION_TYPE = U
NORAD_CAT_ID   = 68033
ELEMENT_SET_NO = 999
REV_AT_EPOCH   = 275
BSTAR          = -.21971E-2
MEAN_MOTION_DOT = -.1275188E-1
MEAN_MOTION_DDOT = .52856E-3

CCSDS_OMM_VERS = 2.0
CREATION_DATE  = 
ORIGINATOR     = 

OBJECT_NAME    = STARLINK-36939
OBJECT_ID      = 2026-040V
CENTER_NAME    = EARTH
REF_FRAME      = TEME
TIME_SYSTEM    = UTC
MEAN_ELEMENT_THEORY = SGP/SGP4

EPOCH          = 2026-03-11T18:00:01.999296
MEAN_MOTION    = 16.02830178
ECCENTRICITY   = .0001219
INCLINATION    = 97.2771
RA_OF_ASC_NODE = 19.1377
ARG_OF_PERICENTER = 81.4935
MEAN_ANOMALY   = 100.3411

EPHEMERIS_TYPE = 0
CLASSIFICATION_TYPE = U
NORAD_CAT_ID   = 68034
ELEMENT_SET_NO = 999
REV_AT_EPOCH   = 275
BSTAR          = -.21725E-2
MEAN_MOTION_DOT = -.128845E-1
MEAN_MOTION_DDOT = .54111E-3

CCSDS_OMM_VERS = 2.0
CREATION_DATE  = 
ORIGINATOR     = 

OBJECT_NAME    = STARLINK-36943
OBJECT_ID      = 2026-040W
CENTER_NAME    = EARTH
REF_FRAME      = TEME
TIME_SYSTEM    = UTC
MEAN_ELEMENT_THEORY = SGP/SGP4

EPOCH          = 2026-03-11T18:00:01.999296
MEAN_MOTION    = 16.03163458
ECCENTRICITY   = .0001133
INCLINATION    = 97.2776
RA_OF_ASC_NODE = 19.1468
ARG_OF_PERICENTER = 88.5385
MEAN_ANOMALY   = 113.2542

EPHEMERIS_TYPE = 0
CLASSIFICATION_TYPE = U
NORAD_CAT_ID   = 68035
ELEMENT_SET_NO = 999
REV_AT_EPOCH   = 280
BSTAR          = -.21763E-2
MEAN_MOTION_DOT = -.1315896E-1
MEAN_MOTION_DDOT = .56483E-3

CCSDS_OMM_VERS = 2.0
CREATION_DATE  = 
ORIGINATOR     = 

OBJECT_NAME    = STARLINK-36906
OBJECT_ID      = 2026-040X
CENTER_NAME    = EARTH
REF_FRAME      = TEME
TIME_SYSTEM    = UTC
MEAN_ELEMENT_THEORY = SGP/SGP4

EPOCH          = 2026-03-11T18:00:01.999296
MEAN_MOTION    = 16.02734010
ECCENTRICITY   = .0001226
INCLINATION    = 97.2765
RA_OF_ASC_NODE = 19.1363
ARG_OF_PERICENTER = 90.3142
MEAN_ANOMALY   = 88.5636

EPHEMERIS_TYPE = 0
CLASSIFICATION_TYPE = U
NORAD_CAT_ID   = 68036
ELEMENT_SET_NO = 999
REV_AT_EPOCH   = 275
BSTAR          = -.21661E-2
MEAN_MOTION_DOT = -.1277577E-1
MEAN_MOTION_DDOT = .53209E-3

CCSDS_OMM_VERS = 2.0
CREATION_DATE  = 
ORIGINATOR     = 

OBJECT_NAME    = STARLINK-36388
OBJECT_ID      = 2026-040Y
CENTER_NAME    = EARTH
REF_FRAME      = TEME
TIME_SYSTEM    = UTC
MEAN_ELEMENT_THEORY = SGP/SGP4

EPOCH          = 2026-03-11T18:00:01.999296
MEAN_MOTION    = 16.02929335
ECCENTRICITY   = .0001207
INCLINATION    = 97.2770
RA_OF_ASC_NODE = 19.1394
ARG_OF_PERICENTER = 91.7966
MEAN_ANOMALY   = 94.2208

EPHEMERIS_TYPE = 0
CLASSIFICATION_TYPE = U
NORAD_CAT_ID   = 68037
ELEMENT_SET_NO = 999
REV_AT_EPOCH   = 270
BSTAR          = -.21474E-2
MEAN_MOTION_DOT = -.1281046E-1
MEAN_MOTION_DDOT = .53598E-3

CCSDS_OMM_VERS = 2.0
CREATION_DATE  = 
ORIGINATOR     = 

OBJECT_NAME    = STARLINK-36895
OBJECT_ID      = 2026-040Z
CENTER_NAME    = EARTH
REF_FRAME      = TEME
TIME_SYSTEM    = UTC
MEAN_ELEMENT_THEORY = SGP/SGP4

EPOCH          = 2026-03-11T18:00:01.999296
MEAN_MOTION    = 16.02690811
ECCENTRICITY   = .0001086
INCLINATION    = 97.2756
RA_OF_ASC_NODE = 19.1344
ARG_OF_PERICENTER = 77.8620
MEAN_ANOMALY   = 97.7981

EPHEMERIS_TYPE = 0
CLASSIFICATION_TYPE = U
NORAD_CAT_ID   = 68038
ELEMENT_SET_NO = 999
REV_AT_EPOCH   = 275
BSTAR          = -.23295E-2
MEAN_MOTION_DOT = -.1369367E-1
MEAN_MOTION_DDOT = .60472E-3

CCSDS_OMM_VERS = 2.0
CREATION_DATE  = 
ORIGINATOR     = 

OBJECT_NAME    = STARLINK-36373
OBJECT_ID      = 2026-040AA
CENTER_NAME    = EARTH
REF_FRAME      = TEME
TIME_SYSTEM    = UTC
MEAN_ELEMENT_THEORY = SGP/SGP4

EPOCH          = 2026-03-11T18:00:01.999296
MEAN_MOTION    = 16.02542967
ECCENTRICITY   = .00012
INCLINATION    = 97.2757
RA_OF_ASC_NODE = 19.1333
ARG_OF_PERICENTER = 82.3495
MEAN_ANOMALY   = 89.5451

EPHEMERIS_TYPE = 0
CLASSIFICATION_TYPE = U
NORAD_CAT_ID   = 68039
ELEMENT_SET_NO = 999
REV_AT_EPOCH   = 270
BSTAR          = -.21714E-2
MEAN_MOTION_DOT = -.126654E-1
MEAN_MOTION_DDOT = .52246E-3

CCSDS_OMM_VERS = 2.0
CREATION_DATE  = 
ORIGINATOR     = 

OBJECT_NAME    = STARLINK-36711
OBJECT_ID      = 2026-041A
CENTER_NAME    = EARTH
REF_FRAME      = TEME
TIME_SYSTEM    = UTC
MEAN_ELEMENT_THEORY = SGP/SGP4

EPOCH          = 2026-03-11T18:00:01.999296
MEAN_MOTION    = 15.85048931
ECCENTRICITY   = .0000534
INCLINATION    = 53.1594
RA_OF_ASC_NODE = 51.8362
ARG_OF_PERICENTER = 89.6531
MEAN_ANOMALY   = 275.6207

EPHEMERIS_TYPE = 0
CLASSIFICATION_TYPE = U
NORAD_CAT_ID   = 68040
ELEMENT_SET_NO = 999
REV_AT_EPOCH   = 270
BSTAR          = -.73103E-2
MEAN_MOTION_DOT = -.154655E-1
MEAN_MOTION_DDOT = 0

